     2.10           NAVIGATION DATA                         RINEX VERSION / TYPE
GRX1200 V8,70       UNLP                2024 06 09 23:59    PGM / RUN BY / DATE 
    1.9558D-08  2.2352D-08 -1.1921D-07 -1.1921D-07          ION ALPHA           
    1.2698D+05  1.6384D+05 -1.9661D+05 -2.6214D+05          ION BETA            
   -1.862645149231D-09-9.769962616701D-15   319488     2318 DELTA-UTC: A0,A1,T,W
    18                                                      LEAP SECONDS        
                                                            END OF HEADER       
24 24 06 09 22 00  0.0-4.765796475112D-04-2.728484105319D-12 0.000000000000D+00
    9.800000000000D+01 7.968750000000D+00 5.403081981825D-09-1.001413799761D+00
    5.178153514862D-07 1.533867884427D-02 6.591901183128D-06 5.153703474045D+03
    7.920000000000D+04 1.806765794754D-07-1.466346421934D+00 4.023313522339D-07
    9.335146588040D-01 2.365312500000D+02 9.806691927625D-01-8.433208797953D-09
    1.850077036014D-10 1.000000000000D+00 2.318000000000D+03 0.000000000000D+00
    2.000000000000D+00 0.000000000000D+00 2.328306436539D-09 9.800000000000D+01
    7.194000000000D+04 4.000000000000D+00
25 24 06 09 22 00  0.0 4.971083253622D-04 5.684341886081D-13 0.000000000000D+00
    7.800000000000D+01 4.500000000000D+00 4.635193118219D-09-2.782161569568D+00
    2.570450305939D-07 1.161614549346D-02 7.545575499535D-06 5.153775346756D+03
    7.920000000000D+04 8.568167686462D-08-3.400122216624D-01-6.332993507385D-08
    9.504958051769D-01 2.270937500000D+02 1.089753743520D+00-7.728178985644D-09
   -3.710868834439D-10 1.000000000000D+00 2.318000000000D+03 0.000000000000D+00
    2.000000000000D+00 0.000000000000D+00 5.122274160385D-09 7.800000000000D+01
    7.194000000000D+04 4.000000000000D+00
32 24 06 09 22 00  0.0-6.166859529912D-04 1.023181539495D-12 0.000000000000D+00
    1.190000000000D+02-8.728125000000D+01 4.233033479295D-09 1.558757928570D+00
   -4.531815648079D-06 7.766725611873D-03 1.000799238682D-05 5.153691644669D+03
    7.920000000000D+04-1.974403858185D-07-2.426951694702D+00-2.980232238770D-08
    9.620982684432D-01 1.917812500000D+02-2.129145038523D+00-7.807468449528D-09
    1.910793884230D-10 1.000000000000D+00 2.318000000000D+03 0.000000000000D+00
    2.000000000000D+00 0.000000000000D+00 9.313225746155D-10 1.190000000000D+02
    7.194000000000D+04 4.000000000000D+00
11 24 06 09 22 00  0.0-6.819716654718D-04-8.299139153678D-12 0.000000000000D+00
    1.500000000000D+02 5.250000000000D+01 4.638407435920D-09 1.427951762437D-01
    2.730637788773D-06 1.341114402749D-03 1.683831214905D-06 5.153720991135D+03
    7.920000000000D+04 2.607703208923D-08 1.819505911782D+00 7.450580596924D-09
    9.660345596741D-01 3.527812500000D+02-2.588334955295D+00-8.313203458954D-09
    1.728643478360D-10 1.000000000000D+00 2.318000000000D+03 0.000000000000D+00
    2.000000000000D+00 0.000000000000D+00-8.847564458847D-09 4.060000000000D+02
    7.194000000000D+04 4.000000000000D+00
29 24 06 09 22 00  0.0-5.949307233095D-04 1.705302565824D-12 0.000000000000D+00
    8.900000000000D+01 1.100000000000D+02 3.935878289951D-09 8.466621209100D-01
    5.725771188736D-06 2.972182584926D-03 8.858740329742D-06 5.153588417053D+03
    7.920000000000D+04 6.705522537231D-08 8.002412081841D-01-3.911554813385D-08
    9.713178678365D-01 2.138125000000D+02 2.561358601084D+00-7.725321715668D-09
    8.571785642397D-12 1.000000000000D+00 2.318000000000D+03 0.000000000000D+00
    2.000000000000D+00 0.000000000000D+00-9.778887033463D-09 8.900000000000D+01
    7.194000000000D+04 4.000000000000D+00
28 24 06 09 22 00  0.0-2.817125059664D-04-1.693933882052D-11 0.000000000000D+00
    1.630000000000D+02 1.656250000000D+00 4.648407880836D-09 2.935767167675D+00
    1.508742570877D-07 3.121558111161D-04 6.819143891335D-06 5.153653514862D+03
    7.920000000000D+04-1.117587089539D-08-1.401984763184D+00 3.352761268616D-08
    9.609184674369D-01 2.495937500000D+02 1.638282957038D+00-7.895685882886D-09
    2.364384243947D-10 1.000000000000D+00 2.318000000000D+03 0.000000000000D+00
    2.000000000000D+00 0.000000000000D+00-9.313225746155D-09 9.310000000000D+02
    7.194000000000D+04 4.000000000000D+00
12 24 06 10 00 00  0.0-5.127531476319D-04-3.183231456205D-12 0.000000000000D+00
    4.800000000000D+01 7.468750000000D+00 4.438756473490D-09-1.695432012726D+00
    4.190951585770D-07 8.741447119974D-03 8.068978786469D-06 5.153638471603D+03
    8.640000000000D+04 1.583248376846D-07-2.533890064178D-01 2.216547727585D-07
    9.625983304157D-01 2.243437500000D+02 1.452605425521D+00-7.786752576067D-09
   -5.503800748485D-10 1.000000000000D+00 2.318000000000D+03 0.000000000000D+00
    2.000000000000D+00 0.000000000000D+00-1.257285475731D-08 4.800000000000D+01
    7.914000000000D+04 4.000000000000D+00
 6 24 06 10 00 00  0.0 2.272767014802D-04-2.091837814078D-11 0.000000000000D+00
    9.000000000000D+01 5.593750000000D+01 3.938735559927D-09-8.299128850886D-02
    2.916902303696D-06 2.963685896248D-03 2.238899469376D-06 5.153636697769D+03
    8.640000000000D+04-3.352761268616D-08 1.786666298943D+00-1.862645149231D-09
    9.894874581358D-01 3.452500000000D+02-6.952862747442D-01-8.057478240175D-09
    2.517961950055D-10 1.000000000000D+00 2.318000000000D+03 0.000000000000D+00
    2.000000000000D+00 0.000000000000D+00 3.725290298462D-09 9.000000000000D+01
    7.914000000000D+04 4.000000000000D+00
11 24 06 10 00 00  0.0-6.820312701166D-04-8.299139153678D-12 0.000000000000D+00
    1.510000000000D+02 5.565625000000D+01 4.505544826117D-09 1.192142275385D+00
    2.691522240639D-06 1.342030707747D-03 1.905485987663D-06 5.153723615646D+03
    8.640000000000D+04 2.048909664154D-08 1.819446011138D+00 4.656612873077D-08
    9.660358192466D-01 3.425000000000D+02-2.587530053379D+00-8.309632093528D-09
    1.896507534349D-10 1.000000000000D+00 2.318000000000D+03 0.000000000000D+00
    2.000000000000D+00 0.000000000000D+00-8.847564458847D-09 4.070000000000D+02
    7.914000000000D+04 4.000000000000D+00
24 24 06 10 00 00  0.0-4.765992052853D-04-2.728484105319D-12 0.000000000000D+00
    9.900000000000D+01 1.171875000000D+01 5.532373226202D-09 4.876730458827D-02
    7.823109626770D-07 1.533916569315D-02 6.530433893204D-06 5.153704454422D+03
    8.640000000000D+04-8.568167686462D-08-1.466408669099D+00 2.309679985046D-07
    9.335152776184D-01 2.376875000000D+02 9.806578083340D-01-8.654645888839D-09
    2.150089550845D-10 1.000000000000D+00 2.318000000000D+03 0.000000000000D+00
    2.000000000000D+00 0.000000000000D+00 2.328306436539D-09 9.900000000000D+01
    7.914000000000D+04 4.000000000000D+00
25 24 06 10 00 00  0.0 4.971125163138D-04 5.684341886081D-13 0.000000000000D+00
    8.100000000000D+01 3.750000000000D+00 4.700909883582D-09-1.732033920245D+00
    2.086162567139D-07 1.161610777490D-02 7.575377821922D-06 5.153775533676D+03
    8.640000000000D+04 3.017485141754D-07-3.400673122314D-01-1.303851604462D-08
    9.504925589617D-01 2.270625000000D+02 1.089745380018D+00-7.833897974763D-09
   -4.971635880757D-10 1.000000000000D+00 2.318000000000D+03 0.000000000000D+00
    2.000000000000D+00 0.000000000000D+00 5.122274160385D-09 8.100000000000D+01
    7.914000000000D+04 4.000000000000D+00
28 24 06 10 00 00  0.0-2.818340435624D-04-1.693933882052D-11 0.000000000000D+00
    1.640000000000D+02 2.125000000000D+00 4.675908993335D-09-2.297419221121D+00
    9.685754776001D-08 3.119864268228D-04 6.953254342079D-06 5.153653781891D+03
    8.640000000000D+04 3.539025783539D-08-1.402041432242D+00 7.450580596924D-09
    9.609199435213D-01 2.476875000000D+02 1.638477921594D+00-7.915686772719D-09
    1.928651821581D-10 1.000000000000D+00 2.318000000000D+03 0.000000000000D+00
    2.000000000000D+00 0.000000000000D+00-9.313225746155D-09 9.320000000000D+02
    7.914000000000D+04 4.000000000000D+00
29 24 06 10 00 00  0.0-5.949181504548D-04 1.705302565824D-12 0.000000000000D+00
    9.000000000000D+01 1.060937500000D+02 3.905162859752D-09 1.897096273515D+00
    5.533918738365D-06 2.972419839352D-03 8.620321750641D-06 5.153587381363D+03
    8.640000000000D+04-1.862645149231D-08 8.001863941066D-01 5.029141902924D-08
    9.713179819442D-01 2.191250000000D+02 2.561152737789D+00-7.638175425484D-09
   -6.250260031759D-11 1.000000000000D+00 2.318000000000D+03 0.000000000000D+00
    2.000000000000D+00 0.000000000000D+00-9.778887033463D-09 9.000000000000D+01
    7.914000000000D+04 4.000000000000D+00
32 24 06 10 00 00  0.0-6.166785024107D-04 1.023181539495D-12 0.000000000000D+00
    1.200000000000D+02-8.753125000000D+01 4.294821831508D-09 2.609131817727D+00
   -4.554167389870D-06 7.767729577608D-03 1.027807593346D-05 5.153688142776D+03
    8.640000000000D+04-2.607703208923D-08-2.427007320700D+00-1.154839992523D-07
    9.621005271887D-01 1.779687500000D+02-2.129349854368D+00-7.633532028706D-09
    2.125088577332D-10 1.000000000000D+00 2.318000000000D+03 0.000000000000D+00
    2.000000000000D+00 0.000000000000D+00 9.313225746155D-10 1.200000000000D+02
    7.914000000000D+04 4.000000000000D+00
11 24 06 10 00 14 40.0-6.820377893746D-04-8.299139153678D-12 0.000000000000D+00
    1.520000000000D+02 5.465625000000D+01 4.483043714032D-09 1.320325464512D+00
    2.672895789146D-06 1.342095434666D-03 1.927837729454D-06 5.153724042892D+03
    8.728000000000D+04 7.450580596924D-09 1.819438667289D+00 6.146728992462D-08
    9.660360079630D-01 3.408437500000D+02-2.587361558863D+00-8.306774823552D-09
    2.003654880900D-10 1.000000000000D+00 2.318000000000D+03 0.000000000000D+00
    2.000000000000D+00 0.000000000000D+00-8.847564458847D-09 4.080000000000D+02
    8.001000000000D+04 4.000000000000D+00
